address,city,state,zip,id,n,fulladdress,lat,long,fips,geometry
1 Carlisle Rd,Westford,MA,01886,Dollar Tree,1,"1 Carlisle Rd, Westford, MA, 01886",42.5652872,-71.4235355,25017,"c(-71.4235355, 42.5652872)"
1 Tremont Street,Taunton,MA,02780,Family Dollar,4,"1 Tremont Street, Taunton, MA, 02780",41.90314,-71.1002326,25005,"c(-71.1002326, 41.90314)"
10 Colrain Rd,Greenfield,MA,01301,Dollar General,3,"10 Colrain Rd, Greenfield, MA, 01301",42.5865662,-72.624449,25011,"c(-72.624449, 42.5865662)"
10 Merchants Way,Middleborough,MA,02346,Family Dollar,1,"10 Merchants Way, Middleborough, MA, 02346",41.8829709,-70.9135793,25023,"c(-70.9135793, 41.8829709)"
100 Granite St,Quincy,MA,02169,Dollar Tree,2,"100 Granite St, Quincy, MA, 02169",42.246376,-71.0054002,25021,"c(-71.0054002, 42.246376)"
1000 Kings Hwy,New Bedford,MA,02745,Dollar General,4,"1000 Kings Hwy, New Bedford, MA, 02745",41.6771115,-70.9403812,25005,"c(-70.9403812, 41.6771115)"
1011 Water St.,Fitchburg,MA,01420,Dollar Tree,3,"1011 Water St., Fitchburg, MA, 01420",42.5642951,-71.7812929,25027,"c(-71.7812929, 42.5642951)"
102 Boston St,Lynn,MA,01904,Dollar Tree,2,"102 Boston St, Lynn, MA, 01904",42.4756156,-70.9570019,25009,"c(-70.9570019, 42.4756156)"
1030 Cambridge St,Cambridge,MA,02141,Dollar General,1,"1030 Cambridge St, Cambridge, MA, 02141",42.3727703,-71.0942204,25017,"c(-71.0942204, 42.3727703)"
1041 Commonwealth Ave,Boston,MA,02215,Dollar Tree,1,"1041 Commonwealth Ave, Boston, MA, 02215",42.3522569,-71.1223634,25025,"c(-71.1223634, 42.3522569)"
1049 Main St,Worcester,MA,01603,Dollar General,3,"1049 Main St, Worcester, MA, 01603",42.2455586,-71.8300326,25027,"c(-71.8300326, 42.2455586)"
1060 Wilbraham Street,Springfield,MA,01109,Dollar Tree,6,"1060 Wilbraham Street, Springfield, MA, 01109",42.1170517,-72.5264602,25013,"c(-72.5264602, 42.1170517)"
1070 Route 132,Hyannis,MA,02601,Dollar Tree,2,"1070 Route 132, Hyannis, MA, 02601",41.6741789,-70.3043098,25001,"c(-70.3043098, 41.6741789)"
1070 Saint James Ave,Springfield,MA,01104,Dollar General,4,"1070 Saint James Ave, Springfield, MA, 01104",42.136718,-72.5709466,25013,"c(-72.5709466, 42.136718)"
1089 Central St,Leominster,MA,01453,Dollar Tree,4,"1089 Central St, Leominster, MA, 01453",42.4975345,-71.7456125,25027,"c(-71.7456125, 42.4975345)"
1089 Dorchester Ave.,Dorchester,MA,02125,Dollar Tree,1,"1089 Dorchester Ave., Dorchester, MA, 02125",42.3133066,-71.0574389,25025,"c(-71.0574389, 42.3133066)"
1090 Revere Beach Pkwy,Chelsea,MA,02150,Dollar Tree,3,"1090 Revere Beach Pkwy, Chelsea, MA, 02150",42.4047984,-71.0242866,25025,"c(-71.0242866, 42.4047984)"
11 Highland Avenue,Malden,MA,02148,Dollar Tree,2,"11 Highland Avenue, Malden, MA, 02148",42.4155341,-71.0781901,25017,"c(-71.0781901, 42.4155341)"
11 Peoples Way,Fairhaven,MA,02719,Family Dollar,2,"11 Peoples Way, Fairhaven, MA, 02719",41.6434328,-70.8919015,25005,"c(-70.8919015, 41.6434328)"
110 E Washington St,North Attleboro,MA,02760,Dollar General,2,"110 E Washington St, North Attleboro, MA, 02760",41.9697465,-71.3351642,25005,"c(-71.3351642, 41.9697465)"
111 Pleasant St,Attleboro,MA,02703,Dollar Tree,2,"111 Pleasant St, Attleboro, MA, 02703",41.9470955,-71.2776923,25005,"c(-71.2776923, 41.9470955)"
1133 Grand Army Hwy,Somerset,MA,02726,Family Dollar,2,"1133 Grand Army Hwy, Somerset, MA, 02726",41.7330151,-71.175695,25005,"c(-71.175695, 41.7330151)"
115 Northfield Rd,Bernardston,MA,01337,Dollar General,1,"115 Northfield Rd, Bernardston, MA, 01337",42.6696452,-72.534925,25011,"c(-72.534925, 42.6696452)"
1150 Union St,West Springfield,MA,01089,Dollar General,3,"1150 Union St, West Springfield, MA, 01089",42.093886,-72.6070644,25013,"c(-72.6070644, 42.093886)"
1163 Providence Rd Spc B,Whitinsville,MA,01588,Dollar Tree,1,"1163 Providence Rd Spc B, Whitinsville, MA, 01588",42.1252585,-71.6480064,25027,"c(-71.6480064, 42.1252585)"
117 Gold Star Boulevard,Worcester,MA,01606,Family Dollar,3,"117 Gold Star Boulevard, Worcester, MA, 01606",42.2911747,-71.8042117,25027,"c(-71.8042117, 42.2911747)"
1175 Main St,Clinton,MA,01510,Family Dollar,1,"1175 Main St, Clinton, MA, 01510",42.4340112,-71.6837967,25027,"c(-71.6837967, 42.4340112)"
119 North Street,Southbridge,MA,01550,Dollar Tree,2,"119 North Street, Southbridge, MA, 01550",42.0766931,-72.0274421,25027,"c(-72.0274421, 42.0766931)"
1190 S Washington St,North Attleboro,MA,02760,Dollar Tree,2,"1190 S Washington St, North Attleboro, MA, 02760",41.9422844,-71.3466235,25005,"c(-71.3466235, 41.9422844)"
12 Mystic View Road Suite A,Everett,MA,02149,Dollar Tree,3,"12 Mystic View Road Suite A, Everett, MA, 02149",42.3994916,-71.0680693,25017,"c(-71.0680693, 42.3994916)"
1201 Parker Street,Springfield,MA,01129,Family Dollar,2,"1201 Parker Street, Springfield, MA, 01129",42.1163307,-72.4976508,25013,"c(-72.4976508, 42.1163307)"
1207 Washington St Ste A-5,Hanover,MA,02339,Dollar Tree,1,"1207 Washington St Ste A-5, Hanover, MA, 02339",42.1306709,-71.242627,25021,"c(-71.242627, 42.1306709)"
121 Sutton Ave,Oxford,MA,01540,Dollar Tree,1,"121 Sutton Ave, Oxford, MA, 01540",42.1149081,-71.848217,25027,"c(-71.848217, 42.1149081)"
121 Webster Ave,Chelsea,MA,02150,Dollar General,3,"121 Webster Ave, Chelsea, MA, 02150",42.4016007,-71.0240433,25025,"c(-71.0240433, 42.4016007)"
122 Medway Rd.,Milford,MA,01757,Dollar Tree,3,"122 Medway Rd., Milford, MA, 01757",42.1500959,-71.488697,25027,"c(-71.488697, 42.1500959)"
1230 VFW Pkwy,West Roxbury,MA,02132,Dollar Tree,2,"1230 VFW Pkwy, West Roxbury, MA, 02132",42.2780954,-71.1695451,25025,"c(-71.1695451, 42.2780954)"
1238 Bedford Street,Abington,MA,02351,Dollar Tree,1,"1238 Bedford Street, Abington, MA, 02351",42.1379577,-70.9510366,25023,"c(-70.9510366, 42.1379577)"
1248 River St,Boston,MA,02136,Dollar General,1,"1248 River St, Boston, MA, 02136",42.255645,-71.1234524,25025,"c(-71.1234524, 42.255645)"
125 Church St,Lowell,MA,01852,Dollar General,2,"125 Church St, Lowell, MA, 01852",42.6405698,-71.305192,25017,"c(-71.305192, 42.6405698)"
125 Church Street,Pembroke,MA,02359,Dollar Tree,1,"125 Church Street, Pembroke, MA, 02359",42.106112,-70.7725856,25023,"c(-70.7725856, 42.106112)"
125 North Main St.,Belchertown,MA,01007,Family Dollar,1,"125 North Main St., Belchertown, MA, 01007",42.2877465,-72.4074595,25015,"c(-72.4074595, 42.2877465)"
1250 St James Ave,Springfield,MA,01104,Family Dollar,4,"1250 St James Ave, Springfield, MA, 01104",42.1407148,-72.5754419,25013,"c(-72.5754419, 42.1407148)"
126 Main Street,Weymouth,MA,02190,Dollar Tree,1,"126 Main Street, Weymouth, MA, 02190",42.2033337,-70.9535602,25021,"c(-70.9535602, 42.2033337)"
1275 Fall River Ave.,Seekonk,MA,02771,Dollar Tree,3,"1275 Fall River Ave., Seekonk, MA, 02771",41.7905585,-71.3232706,25005,"c(-71.3232706, 41.7905585)"
13 Hillsdale Ave,Haverhill,MA,01832,Family Dollar,1,"13 Hillsdale Ave, Haverhill, MA, 01832",42.7750507,-71.0904079,25009,"c(-71.0904079, 42.7750507)"
13 Taunton St (State Route 152,Plainville,MA,02762,Family Dollar,1,"13 Taunton St (State Route 152, Plainville, MA, 02762",42.0111853,-71.3054587,25021,"c(-71.3054587, 42.0111853)"
13 West Main Street,Dudley,MA,01571,Dollar General,2,"13 West Main Street, Dudley, MA, 01571",42.048014,-71.8888635,25027,"c(-71.8888635, 42.048014)"
130 Market Drive,Athol,MA,01331,Dollar Tree,1,"130 Market Drive, Athol, MA, 01331",42.578995,-72.18496,25027,"c(-72.18496, 42.578995)"
133 Water Street,Fitchburg,MA,01420,Family Dollar,3,"133 Water Street, Fitchburg, MA, 01420",42.5797282,-71.7952039,25027,"c(-71.7952039, 42.5797282)"
135 Providence Rd,Northbridge,MA,01534,Dollar General,1,"135 Providence Rd, Northbridge, MA, 01534",42.1010121,-71.6435101,25027,"c(-71.6435101, 42.1010121)"
1379 Liberty St Suites Z1-B,Springfield,MA,01104,Dollar Tree,4,"1379 Liberty St Suites Z1-B, Springfield, MA, 01104",42.0941568,-72.5851711,25013,"c(-72.5851711, 42.0941568)"
138 Canal Street,Salem,MA,01970,Family Dollar,1,"138 Canal Street, Salem, MA, 01970",42.5093591,-70.8962787,25009,"c(-70.8962787, 42.5093591)"
139 Hathaway Rd,New Bedford,MA,02746,Family Dollar,2,"139 Hathaway Rd, New Bedford, MA, 02746",41.6611181,-70.9470639,25005,"c(-70.9470639, 41.6611181)"
139 West St Unit B,Ware,MA,01082,Dollar General,2,"139 West St Unit B, Ware, MA, 01082",42.2564293,-72.2516459,25015,"c(-72.2516459, 42.2564293)"
14 Mcgrath Hwy,Somerville,MA,02143,Dollar Tree,2,"14 Mcgrath Hwy, Somerville, MA, 02143",42.3737134,-71.0828791,25017,"c(-71.0828791, 42.3737134)"
1413 Grafton Street,Worcester,MA,01604,Dollar Tree,3,"1413 Grafton Street, Worcester, MA, 01604",42.2341929,-71.7460048,25027,"c(-71.7460048, 42.2341929)"
142 Boston St,Lynn,MA,01904,Family Dollar,2,"142 Boston St, Lynn, MA, 01904",42.473615,-70.9568858,25009,"c(-70.9568858, 42.473615)"
142 Mechanics Street,Leominster,MA,01453,Family Dollar,4,"142 Mechanics Street, Leominster, MA, 01453",42.5248315,-71.7536756,25027,"c(-71.7536756, 42.5248315)"
143 Washington St,Gloucester,MA,01930,Dollar General,2,"143 Washington St, Gloucester, MA, 01930",42.616971,-70.6681038,25009,"c(-70.6681038, 42.616971)"
146 S. Main St,Milford,MA,01757,Dollar Tree,3,"146 S. Main St, Milford, MA, 01757",42.1247429,-71.5162673,25027,"c(-71.5162673, 42.1247429)"
147 Squire Rd,Revere,MA,02151,Dollar Tree,3,"147 Squire Rd, Revere, MA, 02151",42.424072,-71.0086853,25025,"c(-71.0086853, 42.424072)"
15 Joyce Street,Lynn,MA,01902,Dollar Tree,1,"15 Joyce Street, Lynn, MA, 01902",42.4676764,-70.9426985,25009,"c(-70.9426985, 42.4676764)"
15 North Main Street,Bellingham,MA,02019,Family Dollar,2,"15 North Main Street, Bellingham, MA, 02019",42.0896988,-71.4746001,25021,"c(-71.4746001, 42.0896988)"
15 Plaza Way,Fairhaven,MA,02719,Dollar Tree,2,"15 Plaza Way, Fairhaven, MA, 02719",41.639653,-70.8868734,25005,"c(-70.8868734, 41.639653)"
1504 Allen St,Springfield,MA,01118,Dollar General,2,"1504 Allen St, Springfield, MA, 01118",42.0943376,-72.5101903,25013,"c(-72.5101903, 42.0943376)"
1504 Northampton St,Holyoke,MA,01040,Dollar Tree,6,"1504 Northampton St, Holyoke, MA, 01040",42.2121966,-72.628884,25013,"c(-72.628884, 42.2121966)"
152 Orswell Street,Fall River,MA,02724,Dollar Tree,1,"152 Orswell Street, Fall River, MA, 02724",41.6815722,-71.1643002,25005,"c(-71.1643002, 41.6815722)"
1525 State St,Springfield,MA,01109,Family Dollar,6,"1525 State St, Springfield, MA, 01109",42.1222841,-72.5423819,25013,"c(-72.5423819, 42.1222841)"
154 S Broadway,Lawrence,MA,01843,Dollar Tree,3,"154 S Broadway, Lawrence, MA, 01843",42.6960098,-71.1622399,25009,"c(-71.1622399, 42.6960098)"
155 Columbia St.,Adams,MA,01220,Dollar General,1,"155 Columbia St., Adams, MA, 01220",42.6344595,-73.1132463,25003,"c(-73.1132463, 42.6344595)"
1580 VFW Parkway,West Roxbury,MA,02132,Dollar Tree,2,"1580 VFW Parkway, West Roxbury, MA, 02132",42.2673037,-71.1673172,25025,"c(-71.1673172, 42.2673037)"
160 N Main St. Ste 7,Carver,MA,02330,Dollar Tree,2,"160 N Main St. Ste 7, Carver, MA, 02330",41.9322357,-70.812416,25023,"c(-70.812416, 41.9322357)"
160 Reservoir St,Holden,MA,01520,Dollar Tree,1,"160 Reservoir St, Holden, MA, 01520",42.3439367,-71.8620812,25027,"c(-71.8620812, 42.3439367)"
"160 West Rodney French Blvd, U",New Bedford,MA,02744,Family Dollar,3,"160 West Rodney French Blvd, U, New Bedford, MA, 02744",41.6105965,-70.9168768,25005,"c(-70.9168768, 41.6105965)"
161 East Main St,Milford,MA,01757,Dollar General,3,"161 East Main St, Milford, MA, 01757",42.1491147,-71.5045711,25027,"c(-71.5045711, 42.1491147)"
162 West St.,Ware,MA,01082,Dollar Tree,2,"162 West St., Ware, MA, 01082",42.2544394,-72.2529875,25015,"c(-72.2529875, 42.2544394)"
164 State Road East,Westminster,MA,01473,Dollar General,1,"164 State Road East, Westminster, MA, 01473",42.558208,-71.8737629,25027,"c(-71.8737629, 42.558208)"
1665 Middlesex St,Lowell,MA,01851,Family Dollar,2,"1665 Middlesex St, Lowell, MA, 01851",42.6363188,-71.3514947,25017,"c(-71.3514947, 42.6363188)"
169 Newhall Street,Lowell,MA,01852,Dollar Tree,2,"169 Newhall Street, Lowell, MA, 01852",42.630837,-71.307974,25017,"c(-71.307974, 42.630837)"
16A Commercial St.,Foxborough,MA,02035,Dollar Tree,1,"16A Commercial St., Foxborough, MA, 02035",42.0523328,-71.2407854,25021,"c(-71.2407854, 42.0523328)"
17 Central Ave,Seekonk,MA,02771,Dollar General,3,"17 Central Ave, Seekonk, MA, 02771",41.8890968,-71.3391167,25005,"c(-71.3391167, 41.8890968)"
17 Springfield St,Agawam,MA,01001,Dollar Tree,3,"17 Springfield St, Agawam, MA, 01001",42.0887217,-72.6283758,25013,"c(-72.6283758, 42.0887217)"
176 W State St,Granby,MA,01033,Dollar General,1,"176 W State St, Granby, MA, 01033",42.2542323,-72.526537,25015,"c(-72.526537, 42.2542323)"
1777 Main St,Tewksbury,MA,01876,Dollar Tree,1,"1777 Main St, Tewksbury, MA, 01876",42.5912532,-71.2097774,25017,"c(-71.2097774, 42.5912532)"
178 Haverhill St.,Methuen,MA,01844,Dollar Tree,6,"178 Haverhill St., Methuen, MA, 01844",42.7047856,-71.2004562,25009,"c(-71.2004562, 42.7047856)"
180 Cambridge Street,Burlington,MA,01803,Dollar Tree,1,"180 Cambridge Street, Burlington, MA, 01803",42.5115444,-71.1981407,25017,"c(-71.1981407, 42.5115444)"
180 Milk St,Westborough,MA,01581,Dollar Tree,1,"180 Milk St, Westborough, MA, 01581",42.2804227,-71.6301366,25027,"c(-71.6301366, 42.2804227)"
187 Summer Street Suite 2,Kingston,MA,02364,Dollar Tree,1,"187 Summer Street Suite 2, Kingston, MA, 02364",42.0114135,-70.7306668,25023,"c(-70.7306668, 42.0114135)"
19 Fitchburg Rd.,Ayer,MA,01432,Family Dollar,1,"19 Fitchburg Rd., Ayer, MA, 01432",42.570894,-71.5943247,25017,"c(-71.5943247, 42.570894)"
1914 Ocean Street,Marshfield,MA,02050,Dollar Tree,1,"1914 Ocean Street, Marshfield, MA, 02050",42.0923466,-70.7061601,25023,"c(-70.7061601, 42.0923466)"
193 Boston Post Road W,Marlborough,MA,01752,Dollar Tree,3,"193 Boston Post Road W, Marlborough, MA, 01752",42.3408198,-71.5896422,25017,"c(-71.5896422, 42.3408198)"
1956 Memorial Dr/Rt33,Chicopee,MA,01020,Dollar General,2,"1956 Memorial Dr/Rt33, Chicopee, MA, 01020",42.2105872,-72.5734414,25013,"c(-72.5734414, 42.2105872)"
198 Main Street,Amesbury,MA,01913,Family Dollar,1,"198 Main Street, Amesbury, MA, 01913",42.8516395,-70.9311346,25009,"c(-70.9311346, 42.8516395)"
2 Breckenridge Street,Palmer,MA,01069,Dollar General,1,"2 Breckenridge Street, Palmer, MA, 01069",42.1519681,-72.3160123,25013,"c(-72.3160123, 42.1519681)"
2 Broadway,Methuen,MA,01844,Family Dollar,6,"2 Broadway, Methuen, MA, 01844",42.7179202,-71.1802668,25009,"c(-71.1802668, 42.7179202)"
2 Callahan Dr.,Pittsfield,MA,01201,Dollar General,3,"2 Callahan Dr., Pittsfield, MA, 01201",42.4308523,-73.3186872,25003,"c(-73.3186872, 42.4308523)"
2 Oakham Rd,North Brookfield,MA,01535,Dollar General,1,"2 Oakham Rd, North Brookfield, MA, 01535",42.2783919,-72.081767,25027,"c(-72.081767, 42.2783919)"
20 Archmeadow Drive,Danvers,MA,01923,Family Dollar,3,"20 Archmeadow Drive, Danvers, MA, 01923",42.5600911,-70.9818925,25009,"c(-70.9818925, 42.5600911)"
20 Roche Brothers Way Unit 10-11,N. Easton,MA,02356,Dollar Tree,2,"20 Roche Brothers Way Unit 10-11, N. Easton, MA, 02356",42.0881003,-71.094903,25005,"c(-71.094903, 42.0881003)"
20 Tobey Road,Wareham,MA,02571,Dollar Tree,1,"20 Tobey Road, Wareham, MA, 02571",41.7791051,-70.7448174,25023,"c(-70.7448174, 41.7791051)"
200 Union St,Lynn,MA,01901,Family Dollar,2,"200 Union St, Lynn, MA, 01901",42.4661126,-70.9420019,25009,"c(-70.9420019, 42.4661126)"
201 Market Street,Rockland,MA,02370,Dollar Tree,2,"201 Market Street, Rockland, MA, 02370",42.1218739,-70.9130067,25023,"c(-70.9130067, 42.1218739)"
205 Chandler St,Worcester,MA,01609,Family Dollar,2,"205 Chandler St, Worcester, MA, 01609",42.261049,-71.817368,25027,"c(-71.817368, 42.261049)"
208 Elm Street,Salisbury,MA,01952,Dollar Tree,1,"208 Elm Street, Salisbury, MA, 01952",42.8447843,-70.8977882,25009,"c(-70.8977882, 42.8447843)"
208 Waverly St,Framingham,MA,01702,Dollar General,2,"208 Waverly St, Framingham, MA, 01702",42.2775858,-71.4079503,25017,"c(-71.4079503, 42.2775858)"
209 Exchange St,Chicopee,MA,01013,Family Dollar,2,"209 Exchange St, Chicopee, MA, 01013",42.1485977,-72.6091108,25013,"c(-72.6091108, 42.1485977)"
21 Nottingham Street,Lowell,MA,01851,Family Dollar,2,"21 Nottingham Street, Lowell, MA, 01851",42.6301001,-71.3224518,25017,"c(-71.3224518, 42.6301001)"
21 Torry St,Brockton,MA,02301,Dollar General,6,"21 Torry St, Brockton, MA, 02301",42.0756121,-71.0445535,25023,"c(-71.0445535, 42.0756121)"
210 Avenue A,Turners Falls,MA,01376,Family Dollar,1,"210 Avenue A, Turners Falls, MA, 01376",42.6054088,-72.5596731,25011,"c(-72.5596731, 42.6054088)"
2101 Bay St. Ste. B,Taunton,MA,02780,Dollar Tree,4,"2101 Bay St. Ste. B, Taunton, MA, 02780",41.9610073,-71.1176499,25005,"c(-71.1176499, 41.9610073)"
213 Washington St,Hudson,MA,01749,Dollar Tree,2,"213 Washington St, Hudson, MA, 01749",42.381095,-71.5694744,25017,"c(-71.5694744, 42.381095)"
215 Quincy Ave,Quincy,MA,02169,Dollar Tree,2,"215 Quincy Ave, Quincy, MA, 02169",42.240941,-70.9922941,25021,"c(-70.9922941, 42.240941)"
216 Bussey St,Dedham,MA,02026,Family Dollar,1,"216 Bussey St, Dedham, MA, 02026",42.2493359,-71.1546396,25021,"c(-71.1546396, 42.2493359)"
217 S Main St,Attleboro,MA,02703,Family Dollar,2,"217 S Main St, Attleboro, MA, 02703",41.9347925,-71.2859129,25005,"c(-71.2859129, 41.9347925)"
219 North Main Street Suite A100,Natick,MA,01760,Dollar Tree,1,"219 North Main Street Suite A100, Natick, MA, 01760",42.3024881,-71.359875,25017,"c(-71.359875, 42.3024881)"
22 Bennington St,East Boston,MA,02128,Family Dollar,1,"22 Bennington St, East Boston, MA, 02128",42.3754397,-71.0381462,25025,"c(-71.0381462, 42.3754397)"
220 Main St,Townsend,MA,01469,Family Dollar,1,"220 Main St, Townsend, MA, 01469",42.6641035,-71.7014014,25017,"c(-71.7014014, 42.6641035)"
221 Gloucester Crossing Rd,Gloucester,MA,01930,Dollar Tree,2,"221 Gloucester Crossing Rd, Gloucester, MA, 01930",42.6227633,-70.6545572,25009,"c(-70.6545572, 42.6227633)"
222 East Ashland St,Brockton,MA,02302,Family Dollar,3,"222 East Ashland St, Brockton, MA, 02302",42.0975743,-71.0105891,25023,"c(-71.0105891, 42.0975743)"
223 South Sreet,Holyoke,MA,01040,Family Dollar,6,"223 South Sreet, Holyoke, MA, 01040",42.1961008,-72.6216771,25013,"c(-72.6216771, 42.1961008)"
2261 Northampton St,Holyoke,MA,01040,Dollar General,6,"2261 Northampton St, Holyoke, MA, 01040",42.1844203,-72.6329955,25013,"c(-72.6329955, 42.1844203)"
2269 Northampton St,Holyoke,MA,01040,Dollar Tree,6,"2269 Northampton St, Holyoke, MA, 01040",42.1829352,-72.6333189,25013,"c(-72.6333189, 42.1829352)"
230 Independence Way,Danvers,MA,01923,Dollar Tree,3,"230 Independence Way, Danvers, MA, 01923",42.5531854,-70.9365683,25009,"c(-70.9365683, 42.5531854)"
231 Main St,Wilmington,MA,01887,Dollar Tree,2,"231 Main St, Wilmington, MA, 01887",42.5556556,-71.1826803,25017,"c(-71.1826803, 42.5556556)"
236 North St,Cheshire,MA,01225,Dollar General,1,"236 North St, Cheshire, MA, 01225",42.566819,-73.160968,25003,"c(-73.160968, 42.566819)"
237 Broadway,Taunton,MA,02780,Dollar Tree,4,"237 Broadway, Taunton, MA, 02780",41.9218488,-71.0897963,25005,"c(-71.0897963, 41.9218488)"
237 Lincoln Ave,Haverhill,MA,01830,Dollar Tree,1,"237 Lincoln Ave, Haverhill, MA, 01830",42.7627867,-71.0380248,25009,"c(-71.0380248, 42.7627867)"
24 Blandin Ave,Framingham,MA,01702,Dollar Tree,2,"24 Blandin Ave, Framingham, MA, 01702",42.277054,-71.409543,25017,"c(-71.409543, 42.277054)"
24 Corinth Street,Boston,MA,02131,Family Dollar,2,"24 Corinth Street, Boston, MA, 02131",42.2862324,-71.1300145,25025,"c(-71.1300145, 42.2862324)"
246 Broadway (State Route 28),Methuen,MA,01844,Family Dollar,6,"246 Broadway (State Route 28), Methuen, MA, 01844",42.7257235,-71.1856623,25009,"c(-71.1856623, 42.7257235)"
247 Hancock St,Springfield,MA,01109,Family Dollar,6,"247 Hancock St, Springfield, MA, 01109",42.1024642,-72.5672247,25013,"c(-72.5672247, 42.1024642)"
25 Oak St Ext,Brockton,MA,02301,Family Dollar,6,"25 Oak St Ext, Brockton, MA, 02301",42.0995064,-71.065098,25023,"c(-71.065098, 42.0995064)"
250 Westfield Rd,Holyoke,MA,01040,Dollar General,6,"250 Westfield Rd, Holyoke, MA, 01040",42.190204,-72.6396015,25013,"c(-72.6396015, 42.190204)"
251 Meadow Street,Chicopee,MA,01013,Family Dollar,2,"251 Meadow Street, Chicopee, MA, 01013",42.1798954,-72.6121139,25013,"c(-72.6121139, 42.1798954)"
255 Mohawk Trail,Greenfield,MA,01301,Dollar Tree,3,"255 Mohawk Trail, Greenfield, MA, 01301",42.5876597,-72.6266092,25011,"c(-72.6266092, 42.5876597)"
255 S Westfield St,Feeding Hills,MA,01030,Dollar General,1,"255 S Westfield St, Feeding Hills, MA, 01030",42.0586658,-72.6752617,25013,"c(-72.6752617, 42.0586658)"
259 Bowdoin Street,Dorchester,MA,02122,Dollar Tree,2,"259 Bowdoin Street, Dorchester, MA, 02122",42.3063155,-71.0665372,25025,"c(-71.0665372, 42.3063155)"
2594 Main St,Springfield,MA,01107,Family Dollar,1,"2594 Main St, Springfield, MA, 01107",42.1135647,-72.6058306,25013,"c(-72.6058306, 42.1135647)"
26 Talbot Ave,Dorchester,MA,02124,Dollar Tree,2,"26 Talbot Ave, Dorchester, MA, 02124",42.2946311,-71.0859763,25025,"c(-71.0859763, 42.2946311)"
264 Franklin Village,Franklin,MA,02038,Dollar Tree,2,"264 Franklin Village, Franklin, MA, 02038",42.0887718,-71.4245758,25021,"c(-71.4245758, 42.0887718)"
273 Columbia Road,Dorchester,MA,02121,Family Dollar,1,"273 Columbia Road, Dorchester, MA, 02121",42.3083941,-71.074017,25025,"c(-71.074017, 42.3083941)"
277 Main Street,Wilmington,MA,01887,Dollar General,2,"277 Main Street, Wilmington, MA, 01887",42.553914,-71.1802668,25017,"c(-71.1802668, 42.553914)"
280 Merrimack St,Methuen,MA,01844,Dollar Tree,6,"280 Merrimack St, Methuen, MA, 01844",42.740384,-71.1332934,25009,"c(-71.1332934, 42.740384)"
286 Pleasant Street,Worcester,MA,01609,Dollar Tree,2,"286 Pleasant Street, Worcester, MA, 01609",42.2638772,-71.8120624,25027,"c(-71.8120624, 42.2638772)"
292 Belmont Ave,Springfield,MA,01108,Family Dollar,1,"292 Belmont Ave, Springfield, MA, 01108",42.0875806,-72.5670993,25013,"c(-72.5670993, 42.0875806)"
294 Winthrop St,Taunton,MA,02780,Dollar Tree,4,"294 Winthrop St, Taunton, MA, 02780",41.8884227,-71.1213917,25005,"c(-71.1213917, 41.8884227)"
2991 Cranberry Hwy Ste A,East Wareham,MA,02538,Dollar Tree,2,"2991 Cranberry Hwy Ste A, East Wareham, MA, 02538",41.7584915,-70.666397,25023,"c(-70.666397, 41.7584915)"
30 American Legion Dr.,North Adams,MA,01247,Dollar Tree,2,"30 American Legion Dr., North Adams, MA, 01247",42.6983959,-73.1127942,25003,"c(-73.1127942, 42.6983959)"
301 East Main St,Westfield,MA,01085,Dollar Tree,3,"301 East Main St, Westfield, MA, 01085",42.1127205,-72.7275008,25013,"c(-72.7275008, 42.1127205)"
303B E Central St,Franklin,MA,02038,Dollar Tree,2,"303B E Central St, Franklin, MA, 02038",42.0813289,-71.3833978,25021,"c(-71.3833978, 42.0813289)"
309 Moody St,Waltham,MA,02453,Family Dollar,1,"309 Moody St, Waltham, MA, 02453",42.3709423,-71.2373281,25017,"c(-71.2373281, 42.3709423)"
31 Furlong Dr Unit G,Revere,MA,02151,Dollar Tree,3,"31 Furlong Dr Unit G, Revere, MA, 02151",42.3973766,-71.0008751,25025,"c(-71.0008751, 42.3973766)"
3137 Cranberry Hwy,East Wareham,MA,02538,Dollar General,2,"3137 Cranberry Hwy, East Wareham, MA, 02538",41.7531846,-70.636597,25023,"c(-70.636597, 41.7531846)"
32 Highland Commons E,Hudson,MA,01749,Dollar Tree,2,"32 Highland Commons E, Hudson, MA, 01749",42.39545,-71.598219,25027,"c(-71.598219, 42.39545)"
321 Pond St,Ashland,MA,01721,Dollar Tree,2,"321 Pond St, Ashland, MA, 01721",42.2405646,-71.433102,25017,"c(-71.433102, 42.2405646)"
322 S Broadway,Lawrence,MA,01843,Family Dollar,3,"322 S Broadway, Lawrence, MA, 01843",42.6894336,-71.1580804,25009,"c(-71.1580804, 42.6894336)"
326 W Main St,Hyannis,MA,02601,Dollar General,2,"326 W Main St, Hyannis, MA, 02601",41.6488508,-70.308597700000007,25001,"c(-70.3085977, 41.6488508)"
330 N. Main St.,Randolph,MA,02368,Dollar Tree,2,"330 N. Main St., Randolph, MA, 02368",42.1672038,-71.0457375,25021,"c(-71.0457375, 42.1672038)"
335 Ferry St,Everett,MA,02149,Family Dollar,3,"335 Ferry St, Everett, MA, 02149",42.4155135,-71.0470375,25017,"c(-71.0470375, 42.4155135)"
339 Squire Rd,Revere,MA,02151,Dollar General,3,"339 Squire Rd, Revere, MA, 02151",42.4268623,-71.0127482,25025,"c(-71.0127482, 42.4268623)"
340 N Main St,Randolph,MA,02368,Dollar General,2,"340 N Main St, Randolph, MA, 02368",42.1683444,-71.0465268,25021,"c(-71.0465268, 42.1683444)"
342 West Boylston Street,West Boylston,MA,01583,Dollar General,2,"342 West Boylston Street, West Boylston, MA, 01583",42.3399289,-71.7892387,25027,"c(-71.7892387, 42.3399289)"
344 Greenwood St,Worcester,MA,01607,Dollar Tree,1,"344 Greenwood St, Worcester, MA, 01607",42.2140494,-71.7972773,25027,"c(-71.7972773, 42.2140494)"
346 Stockbridge Rd,Great Barrington,MA,01230,Dollar Tree,1,"346 Stockbridge Rd, Great Barrington, MA, 01230",42.2100363,-73.343145,25003,"c(-73.343145, 42.2100363)"
35 Long Pond Dr,South Yarmouth,MA,02664,Dollar Tree,1,"35 Long Pond Dr, South Yarmouth, MA, 02664",41.6570728,-70.2083793,25001,"c(-70.2083793, 41.6570728)"
350 Timpany Blvd.,Gardner,MA,01440,Dollar Tree,2,"350 Timpany Blvd., Gardner, MA, 01440",42.5591153,-71.9888959,25027,"c(-71.9888959, 42.5591153)"
354 Main Street,Indian Orchard (Spri,MA,01151,Family Dollar,1,"354 Main Street, Indian Orchard (Spri, MA, 01151",42.158484,-72.493488,25013,"c(-72.493488, 42.158484)"
366 Market St,Rockland,MA,02370,Family Dollar,2,"366 Market St, Rockland, MA, 02370",42.1241853,-70.9074487,25023,"c(-70.9074487, 42.1241853)"
369 Federal St,Greenfield,MA,01301,Dollar General,3,"369 Federal St, Greenfield, MA, 01301",42.6033428,-72.5909995,25011,"c(-72.5909995, 42.6033428)"
376 Main Street,Wakefield,MA,01880,Dollar Tree,1,"376 Main Street, Wakefield, MA, 01880",42.5039604,-71.0703442,25017,"c(-71.0703442, 42.5039604)"
377 Cabot St,Beverly,MA,01915,Dollar Tree,2,"377 Cabot St, Beverly, MA, 01915",42.5580376,-70.8789774,25009,"c(-70.8789774, 42.5580376)"
383 Allen Street,Springfield,MA,01118,Dollar Tree,2,"383 Allen Street, Springfield, MA, 01118",42.0935704,-72.5502907,25013,"c(-72.5502907, 42.0935704)"
384 Main St,Williamstown,MA,01267,Dollar General,1,"384 Main St, Williamstown, MA, 01267",42.7049311,-73.1885688,25003,"c(-73.1885688, 42.7049311)"
390 Union St,Ashland,MA,01721,Family Dollar,2,"390 Union St, Ashland, MA, 01721",42.2547939,-71.4658348,25017,"c(-71.4658348, 42.2547939)"
4 Airport Rd,Dudley,MA,01571,Dollar Tree,2,"4 Airport Rd, Dudley, MA, 01571",42.0426965,-71.9122153,25027,"c(-71.9122153, 42.0426965)"
40 Jackson St,Methuen,MA,01844,Family Dollar,6,"40 Jackson St, Methuen, MA, 01844",42.7238387,-71.1607406,25009,"c(-71.1607406, 42.7238387)"
405 Nagog Park,Acton,MA,01720,Dollar Tree,1,"405 Nagog Park, Acton, MA, 01720",42.5229535,-71.4321627,25017,"c(-71.4321627, 42.5229535)"
406 N Main St,East Longmeadow,MA,01028,Dollar Tree,1,"406 N Main St, East Longmeadow, MA, 01028",42.0776598,-72.5260287,25013,"c(-72.5260287, 42.0776598)"
41 Worcester Rd,Webster,MA,01570,Dollar Tree,2,"41 Worcester Rd, Webster, MA, 01570",42.0619275,-71.8647569,25027,"c(-71.8647569, 42.0619275)"
4171 N Main St,Fall River,MA,02720,Family Dollar,2,"4171 N Main St, Fall River, MA, 02720",41.7508914,-71.1208993,25005,"c(-71.1208993, 41.7508914)"
420 Walpole Street,Norwood,MA,02062,Dollar Tree,1,"420 Walpole Street, Norwood, MA, 02062",42.1781158,-71.219902,25021,"c(-71.219902, 42.1781158)"
425 Washington Street,Woburn,MA,01801,Dollar Tree,2,"425 Washington Street, Woburn, MA, 01801",42.5041361,-71.1249843,25017,"c(-71.1249843, 42.5041361)"
430 Liberty St.,Hanson,MA,02341,Dollar Tree,1,"430 Liberty St., Hanson, MA, 02341",42.0663664,-70.8723818,25023,"c(-70.8723818, 42.0663664)"
431 Main St,Woburn,MA,01801,Family Dollar,2,"431 Main St, Woburn, MA, 01801",42.4807819,-71.1507466,25017,"c(-71.1507466, 42.4807819)"
436 Broadway,Methuen,MA,01844,Dollar Tree,6,"436 Broadway, Methuen, MA, 01844",42.7361003,-71.1959078,25009,"c(-71.1959078, 42.7361003)"
438 State Rd,Dartmouth,MA,02747,Dollar Tree,1,"438 State Rd, Dartmouth, MA, 02747",41.6427819,-70.9960553,25005,"c(-70.9960553, 41.6427819)"
44 North Main Street,Carver,MA,02330,Dollar General,2,"44 North Main Street, Carver, MA, 02330",41.910741,-70.8013571,25023,"c(-70.8013571, 41.910741)"
440 Middlesex Road #A2,Tyngsborough,MA,01879,Dollar Tree,1,"440 Middlesex Road #A2, Tyngsborough, MA, 01879",42.6962469,-71.4406331,25017,"c(-71.4406331, 42.6962469)"
440 North Franklin St,Holbrook,MA,02343,Family Dollar,3,"440 North Franklin St, Holbrook, MA, 02343",42.1672484,-71.007896,25021,"c(-71.007896, 42.1672484)"
440 Stafford Rd,Fall River,MA,02721,Family Dollar,1,"440 Stafford Rd, Fall River, MA, 02721",41.6829983,-71.1559445,25005,"c(-71.1559445, 41.6829983)"
447 Route 28,West Yarmouth,MA,02673,Dollar General,2,"447 Route 28, West Yarmouth, MA, 02673",41.65026,-70.2409255,25001,"c(-70.2409255, 41.65026)"
45 Blandford Stage Rd,Russell,MA,01071,Dollar General,1,"45 Blandford Stage Rd, Russell, MA, 01071",42.1877794,-72.8572481,25013,"c(-72.8572481, 42.1877794)"
45 Vine Street,Charlestown,MA,02129,Dollar Tree,1,"45 Vine Street, Charlestown, MA, 02129",42.3773016,-71.0565087,25025,"c(-71.0565087, 42.3773016)"
450 Broadway,Everett,MA,02149,Family Dollar,3,"450 Broadway, Everett, MA, 02149",42.4075465,-71.0554961,25017,"c(-71.0554961, 42.4075465)"
450 Nashua Rd.,Dracut,MA,01826,Dollar General,2,"450 Nashua Rd., Dracut, MA, 01826",42.6788755,-71.3624433,25017,"c(-71.3624433, 42.6788755)"
452 Mt Pleasant St,New Bedford,MA,02746,Dollar Tree,2,"452 Mt Pleasant St, New Bedford, MA, 02746",41.6625628,-70.9410266,25005,"c(-70.9410266, 41.6625628)"
455 Breckwood Blvd,Springfield,MA,01109,Family Dollar,6,"455 Breckwood Blvd, Springfield, MA, 01109",42.1171398,-72.5239512,25013,"c(-72.5239512, 42.1171398)"
458 Russell Street Ste 8,Hadley,MA,01035,Dollar Tree,1,"458 Russell Street Ste 8, Hadley, MA, 01035",42.3663145,-72.5367966,25015,"c(-72.5367966, 42.3663145)"
465 Memorial Ave,West Springfield,MA,01089,Dollar Tree,3,"465 Memorial Ave, West Springfield, MA, 01089",42.0948223,-72.6030693,25013,"c(-72.6030693, 42.0948223)"
48 Dodge St,Beverly,MA,01915,Dollar Tree,2,"48 Dodge St, Beverly, MA, 01915",42.5766107,-70.8919064,25009,"c(-70.8919064, 42.5766107)"
480 Boston Rd.,Billerica,MA,01821,Dollar Tree,1,"480 Boston Rd., Billerica, MA, 01821",42.5554853,-71.2632978,25017,"c(-71.2632978, 42.5554853)"
49 Central St,Winchendon,MA,01475,Family Dollar,1,"49 Central St, Winchendon, MA, 01475",42.6813978,-72.0474183,25027,"c(-72.0474183, 42.6813978)"
490 Lincoln St,Worcester,MA,01605,Dollar Tree,1,"490 Lincoln St, Worcester, MA, 01605",42.2960264,-71.7768904,25027,"c(-71.7768904, 42.2960264)"
50 Broadway,Malden,MA,02148,Dollar Tree,2,"50 Broadway, Malden, MA, 02148",42.4251734,-71.0449946,25017,"c(-71.0449946, 42.4251734)"
50 Central Avenue,Lynn,MA,01901,Family Dollar,2,"50 Central Avenue, Lynn, MA, 01901",42.463813,-70.9475747,25009,"c(-70.9475747, 42.463813)"
50 Mill Street Suite 4,Worcester,MA,01603,Dollar Tree,3,"50 Mill Street Suite 4, Worcester, MA, 01603",42.246877,-71.8323953,25027,"c(-71.8323953, 42.246877)"
50 Pleasant Street,Dracut,MA,01826,Family Dollar,2,"50 Pleasant Street, Dracut, MA, 01826",42.6640949,-71.3257459,25017,"c(-71.3257459, 42.6640949)"
50 Pulaski Blvd,Bellingham,MA,02019,Dollar Tree,2,"50 Pulaski Blvd, Bellingham, MA, 02019",42.0183102,-71.498182,25021,"c(-71.498182, 42.0183102)"
500 Geneva Ave,Dorchester,MA,02122,Dollar General,2,"500 Geneva Ave, Dorchester, MA, 02122",42.2990808,-71.0626837,25025,"c(-71.0626837, 42.2990808)"
500 Route 134,South Dennis,MA,02660,Dollar Tree,1,"500 Route 134, South Dennis, MA, 02660",41.6948936,-70.1503056,25001,"c(-70.1503056, 41.6948936)"
501 Foundry St,North Easton,MA,02356,Dollar Tree,2,"501 Foundry St, North Easton, MA, 02356",42.0241138,-71.1214866,25005,"c(-71.1214866, 42.0241138)"
501 Newton St,South Hadley,MA,01075,Dollar General,1,"501 Newton St, South Hadley, MA, 01075",42.2359865,-72.5808345,25015,"c(-72.5808345, 42.2359865)"
505 E Main St,Southbridge,MA,01550,Family Dollar,2,"505 E Main St, Southbridge, MA, 01550",42.0694895,-72.0090374,25027,"c(-72.0090374, 42.0694895)"
51 Franklin Street,Westfield,MA,01085,Family Dollar,3,"51 Franklin Street, Westfield, MA, 01085",42.1249017,-72.7494671,25013,"c(-72.7494671, 42.1249017)"
510 Parker St.,Springfield,MA,01129,Dollar Tree,2,"510 Parker St., Springfield, MA, 01129",42.139593,-72.4973797,25013,"c(-72.4973797, 42.139593)"
515 College Hwy,Southwick,MA,01077,Dollar Tree,2,"515 College Hwy, Southwick, MA, 01077",42.0576233,-72.7690073,25013,"c(-72.7690073, 42.0576233)"
516  N Main St,Leominster,MA,01453,Dollar Tree,4,"516  N Main St, Leominster, MA, 01453",42.5486652,-71.7630822,25027,"c(-71.7630822, 42.5486652)"
525  Washington St,Stoughton,MA,02072,Family Dollar,2,"525  Washington St, Stoughton, MA, 02072",42.1522114,-71.147892,25021,"c(-71.147892, 42.1522114)"
525 Main St,West Yarmouth,MA,02673,Dollar Tree,2,"525 Main St, West Yarmouth, MA, 02673",41.6498381,-70.2350003,25001,"c(-70.2350003, 41.6498381)"
525 South Main Street,Lanesborough,MA,01237,Dollar General,1,"525 South Main Street, Lanesborough, MA, 01237",42.5014534,-73.2371417,25003,"c(-73.2371417, 42.5014534)"
525 Washington St,Stoughton,MA,02072,Dollar Tree,2,"525 Washington St, Stoughton, MA, 02072",42.1522114,-71.147892,25021,"c(-71.147892, 42.1522114)"
529 Quarry St. #1,Fall River,MA,02723,Dollar Tree,1,"529 Quarry St. #1, Fall River, MA, 02723",41.6915821,-71.1401123,25005,"c(-71.1401123, 41.6915821)"
53 Springfield Street,Agawam,MA,01001,Dollar General,3,"53 Springfield Street, Agawam, MA, 01001",42.0886819,-72.6298079,25013,"c(-72.6298079, 42.0886819)"
537 Orchard Street,New Bedford,MA,02744,Family Dollar,3,"537 Orchard Street, New Bedford, MA, 02744",41.6179419,-70.9296485,25005,"c(-70.9296485, 41.6179419)"
54 W. Main Street,Brookfield,MA,01506,Dollar General,1,"54 W. Main Street, Brookfield, MA, 01506",42.211905,-72.085043,25027,"c(-72.085043, 42.211905)"
540 W Boylston Street,Worcester,MA,01606,Dollar Tree,3,"540 W Boylston Street, Worcester, MA, 01606",42.3103461,-71.7975219,25027,"c(-71.7975219, 42.3103461)"
544 Southbridge Street,Worcester,MA,01610,Dollar Tree,3,"544 Southbridge Street, Worcester, MA, 01610",42.246769,-71.8097916,25027,"c(-71.8097916, 42.246769)"
548 Main Street,Brockton,MA,02301,Family Dollar,6,"548 Main Street, Brockton, MA, 02301",42.0742925,-71.018736,25023,"c(-71.018736, 42.0742925)"
551 Electric Avenue,Fitchburg,MA,01420,Family Dollar,3,"551 Electric Avenue, Fitchburg, MA, 01420",42.5687967,-71.8162929,25027,"c(-71.8162929, 42.5687967)"
555 High St,Holyoke,MA,01040,Family Dollar,6,"555 High St, Holyoke, MA, 01040",42.2020465,-72.6130309,25013,"c(-72.6130309, 42.2020465)"
555 State Street,Springfield,MA,01109,Dollar Tree,6,"555 State Street, Springfield, MA, 01109",42.1087053,-72.5744126,25013,"c(-72.5744126, 42.1087053)"
56 Main Street Unit 2,Lakeville,MA,02347,Dollar Tree,1,"56 Main Street Unit 2, Lakeville, MA, 02347",41.8726772,-70.9281623,25023,"c(-70.9281623, 41.8726772)"
561 Orchard  Street,New Bedford,MA,02744,Dollar Tree,3,"561 Orchard  Street, New Bedford, MA, 02744",41.616912,-70.929757,25005,"c(-70.929757, 41.616912)"
568 Main Street,Leominster,MA,01453,Dollar Tree,4,"568 Main Street, Leominster, MA, 01453",42.5413517,-71.740242,25027,"c(-71.740242, 42.5413517)"
575 Main St,Springfield,MA,01105,Family Dollar,1,"575 Main St, Springfield, MA, 01105",42.0939697,-72.5806958,25013,"c(-72.5806958, 42.0939697)"
58 Swansea Mall Dr,Swansea,MA,02777,Dollar Tree,1,"58 Swansea Mall Dr, Swansea, MA, 02777",41.7504115,-71.2155859,25005,"c(-71.2155859, 41.7504115)"
591 Memorial Dr Ste B,Chicopee,MA,01020,Dollar Tree,2,"591 Memorial Dr Ste B, Chicopee, MA, 01020",42.175046,-72.5721476,25013,"c(-72.5721476, 42.175046)"
6 Aubuchon Lane,Sandwich,MA,02563,Dollar Tree,1,"6 Aubuchon Lane, Sandwich, MA, 02563",41.707139,-70.487789,25001,"c(-70.487789, 41.707139)"
600 South St W,Raynham,MA,02767,Dollar Tree,1,"600 South St W, Raynham, MA, 02767",41.9060857,-71.0462946,25005,"c(-71.0462946, 41.9060857)"
611 Washington St,Whitman,MA,02382,Family Dollar,1,"611 Washington St, Whitman, MA, 02382",42.0817087,-70.9373346,25023,"c(-70.9373346, 42.0817087)"
615 Broadway,Chelsea,MA,02150,Family Dollar,3,"615 Broadway, Chelsea, MA, 02150",42.3945159,-71.0306334,25025,"c(-71.0306334, 42.3945159)"
617 Southampton Rd,Westfield,MA,01085,Dollar General,3,"617 Southampton Rd, Westfield, MA, 01085",42.1604956,-72.7255562,25013,"c(-72.7255562, 42.1604956)"
62 W Main St,Spencer,MA,01562,Family Dollar,1,"62 W Main St, Spencer, MA, 01562",42.2337027,-72.0141262,25027,"c(-72.0141262, 42.2337027)"
622 Somerville Ave,Somerville,MA,02143,Dollar Tree,2,"622 Somerville Ave, Somerville, MA, 02143",42.383682,-71.1102224,25017,"c(-71.1102224, 42.383682)"
631 North St,Pittsfield,MA,01201,Family Dollar,3,"631 North St, Pittsfield, MA, 01201",42.4572208,-73.2510112,25003,"c(-73.2510112, 42.4572208)"
644 State Street,Springfield,MA,01109,Family Dollar,6,"644 State Street, Springfield, MA, 01109",42.1107441,-72.5712293,25013,"c(-72.5712293, 42.1107441)"
65 Copeland Dr,Mansfield,MA,02048,Dollar General,1,"65 Copeland Dr, Mansfield, MA, 02048",42.0284776,-71.2271881,25005,"c(-71.2271881, 42.0284776)"
655 Broadway,Saugus,MA,01906,Dollar Tree,1,"655 Broadway, Saugus, MA, 01906",42.479124,-71.0240545,25009,"c(-71.0240545, 42.479124)"
665 Liberty St.,Springfield,MA,01104,Family Dollar,4,"665 Liberty St., Springfield, MA, 01104",42.121053,-72.582938,25013,"c(-72.582938, 42.121053)"
670 North Main Street,Sheffield,MA,01257,Dollar General,1,"670 North Main Street, Sheffield, MA, 01257",42.1241567,-73.3572841,25003,"c(-73.3572841, 42.1241567)"
673 Main St .,Walpole,MA,02081,Dollar Tree,1,"673 Main St ., Walpole, MA, 02081",42.1538889,-71.2448227,25021,"c(-71.2448227, 42.1538889)"
68 Stafford St,Worcester,MA,01603,Dollar Tree,3,"68 Stafford St, Worcester, MA, 01603",42.2413177,-71.8418691,25027,"c(-71.8418691, 42.2413177)"
683 Belmont Street,Brockton,MA,02301,Dollar Tree,6,"683 Belmont Street, Brockton, MA, 02301",42.0713346,-71.0473625,25023,"c(-71.0473625, 42.0713346)"
69 Veterans Memorial Dr,North Adams,MA,01247,Dollar General,2,"69 Veterans Memorial Dr, North Adams, MA, 01247",42.7014833,-73.1115865,25003,"c(-73.1115865, 42.7014833)"
690 Merrill Rd,Pittsfield,MA,01201,Dollar Tree,3,"690 Merrill Rd, Pittsfield, MA, 01201",42.4667376,-73.2032671,25003,"c(-73.2032671, 42.4667376)"
691 College Highway,Southwick,MA,01077,Family Dollar,2,"691 College Highway, Southwick, MA, 01077",42.0727402,-72.7666296,25013,"c(-72.7666296, 42.0727402)"
696 Dartmouth St,South Dartmouth,MA,02748,Dollar General,1,"696 Dartmouth St, South Dartmouth, MA, 02748",41.6019118,-70.939912,25005,"c(-70.939912, 41.6019118)"
7 Davis Straits,Falmouth,MA,02540,Dollar Tree,1,"7 Davis Straits, Falmouth, MA, 02540",41.5558444,-70.5980008,25001,"c(-70.5980008, 41.5558444)"
70 Worcester Rd (Route 12),Webster,MA,01570,Family Dollar,2,"70 Worcester Rd (Route 12), Webster, MA, 01570",42.0720453,-71.8650927,25027,"c(-71.8650927, 42.0720453)"
700 Crescent St,Brockton,MA,02302,Dollar Tree,3,"700 Crescent St, Brockton, MA, 02302",42.0820149,-70.9909475,25023,"c(-70.9909475, 42.0820149)"
700 Essex St,Lawrence,MA,01841,Family Dollar,1,"700 Essex St, Lawrence, MA, 01841",42.7018808,-71.1720515,25009,"c(-71.1720515, 42.7018808)"
700 Southbridge St,Worcester,MA,01610,Family Dollar,3,"700 Southbridge St, Worcester, MA, 01610",42.2430935,-71.8101574,25027,"c(-71.8101574, 42.2430935)"
713 State Rd.,Plymouth,MA,02360,Dollar Tree,2,"713 State Rd., Plymouth, MA, 02360",41.9153132,-70.5565663,25023,"c(-70.5565663, 41.9153132)"
714 Main St,Dennisport,MA,02639,Dollar Tree,1,"714 Main St, Dennisport, MA, 02639",41.6695516,-70.1226025,25001,"c(-70.1226025, 41.6695516)"
72 Main St,North Reading,MA,01864,Dollar Tree,1,"72 Main St, North Reading, MA, 01864",42.5704229,-71.1127292,25017,"c(-71.1127292, 42.5704229)"
725 Centre St,Brockton,MA,02302,Family Dollar,3,"725 Centre St, Brockton, MA, 02302",42.086103,-70.9888367,25023,"c(-70.9888367, 42.086103)"
725 Grafton Street,Worcester,MA,01604,Family Dollar,3,"725 Grafton Street, Worcester, MA, 01604",42.2512294,-71.7678812,25027,"c(-71.7678812, 42.2512294)"
75 S Bolton St,Marlborough,MA,01752,Dollar Tree,3,"75 S Bolton St, Marlborough, MA, 01752",42.3444167,-71.5454105,25017,"c(-71.5454105, 42.3444167)"
755 West Boylston Street,Worcester,MA,01606,Family Dollar,3,"755 West Boylston Street, Worcester, MA, 01606",42.3177907,-71.7964473,25027,"c(-71.7964473, 42.3177907)"
759 Lynnway,Lynn,MA,01905,Dollar Tree,1,"759 Lynnway, Lynn, MA, 01905",42.4495938,-70.9643857,25009,"c(-70.9643857, 42.4495938)"
760 Boston Rd,Groton,MA,01450,Dollar Tree,1,"760 Boston Rd, Groton, MA, 01450",42.5799145,-71.5239916,25017,"c(-71.5239916, 42.5799145)"
765 Bridge St Ste 3,Weymouth,MA,02191,Dollar Tree,1,"765 Bridge St Ste 3, Weymouth, MA, 02191",42.2455645,-70.9343391,25021,"c(-70.9343391, 42.2455645)"
771 Boston Post Rd. E Unit 12,Marlborough,MA,01752,Dollar Tree,3,"771 Boston Post Rd. E Unit 12, Marlborough, MA, 01752",42.3492593,-71.4994109,25017,"c(-71.4994109, 42.3492593)"
771 Purchase St,New Bedford,MA,02740,Family Dollar,1,"771 Purchase St, New Bedford, MA, 02740",41.6347719,-70.9261114,25005,"c(-70.9261114, 41.6347719)"
778 S Franklin St Suite 3,Holbrook,MA,02343,Dollar Tree,3,"778 S Franklin St Suite 3, Holbrook, MA, 02343",42.1293669,-71.0092425,25021,"c(-71.0092425, 42.1293669)"
786 Boston Rd,Springfield,MA,01119,Dollar General,1,"786 Boston Rd, Springfield, MA, 01119",42.1385791,-72.5190962,25013,"c(-72.5190962, 42.1385791)"
8 Newbury St. Ste. 1B,Danvers,MA,01923,Dollar Tree,3,"8 Newbury St. Ste. 1B, Danvers, MA, 01923",42.5588995,-70.9811959,25009,"c(-70.9811959, 42.5588995)"
800 N Main Street,West Bridgewater,MA,02379,Family Dollar,2,"800 N Main Street, West Bridgewater, MA, 02379",42.0419596,-71.0097997,25023,"c(-71.0097997, 42.0419596)"
"800 S Franklin Street, Suite 2",Holbrook,MA,02343,Family Dollar,3,"800 S Franklin Street, Suite 2, Holbrook, MA, 02343",42.1288893,-71.0105891,25021,"c(-71.0105891, 42.1288893)"
800 S Main Street,Sharon,MA,02067,Dollar Tree,1,"800 S Main Street, Sharon, MA, 02067",42.0935954,-71.2201656,25021,"c(-71.2201656, 42.0935954)"
835 Main Street,Worcester,MA,01610,Family Dollar,3,"835 Main Street, Worcester, MA, 01610",42.2545425,-71.8138258,25027,"c(-71.8138258, 42.2545425)"
860 N Main Street,West Bridgewater,MA,02379,Dollar Tree,2,"860 N Main Street, West Bridgewater, MA, 02379",42.0432626,-71.0116481,25023,"c(-71.0116481, 42.0432626)"
870 N Main St,Fall River,MA,02720,Family Dollar,2,"870 N Main St, Fall River, MA, 02720",41.7140433,-71.1536402,25005,"c(-71.1536402, 41.7140433)"
870 Suffield St,Agawam,MA,01001,Dollar Tree,3,"870 Suffield St, Agawam, MA, 01001",42.0597741,-72.633055,25013,"c(-72.633055, 42.0597741)"
880 N. Montello Street,Brockton,MA,02301,Family Dollar,6,"880 N. Montello Street, Brockton, MA, 02301",42.1070488,-71.023683,25023,"c(-71.023683, 42.1070488)"
893 Church Street,New Bedford,MA,02745,Dollar General,4,"893 Church Street, New Bedford, MA, 02745",41.6910604,-70.9418163,25005,"c(-70.9418163, 41.6910604)"
90 Union St.,Easthampton,MA,01027,Family Dollar,1,"90 Union St., Easthampton, MA, 01027",42.2664873,-72.6707813,25015,"c(-72.6707813, 42.2664873)"
90 West St,Gardner,MA,01440,Family Dollar,2,"90 West St, Gardner, MA, 01440",42.5762888,-72.0007958,25027,"c(-72.0007958, 42.5762888)"
91 Carver Road,Plymouth,MA,02360,Dollar Tree,2,"91 Carver Road, Plymouth, MA, 02360",41.9438859,-70.7085298,25023,"c(-70.7085298, 41.9438859)"
91 West Boylston St,West Boylston,MA,01583,Dollar Tree,2,"91 West Boylston St, West Boylston, MA, 01583",42.3565191,-71.7829139,25027,"c(-71.7829139, 42.3565191)"
935 Grafton St,Worcester,MA,01604,Dollar Tree,3,"935 Grafton St, Worcester, MA, 01604",42.2477279,-71.7592327,25027,"c(-71.7592327, 42.2477279)"
935 Riverdale St Ste. G106,West Springfield,MA,01089,Dollar Tree,3,"935 Riverdale St Ste. G106, West Springfield, MA, 01089",42.1284236,-72.6222777,25013,"c(-72.6222777, 42.1284236)"
950 American Legion Hwy.,Boston,MA,02131,Dollar Tree,2,"950 American Legion Hwy., Boston, MA, 02131",42.2767264,-71.114795,25025,"c(-71.114795, 42.2767264)"
950 Kings Hwy,New Bedford,MA,02745,Family Dollar,4,"950 Kings Hwy, New Bedford, MA, 02745",41.6762181,-70.9430352,25005,"c(-70.9430352, 41.6762181)"
950 Kings Hwy Suite 6B,New Bedford,MA,02745,Dollar Tree,4,"950 Kings Hwy Suite 6B, New Bedford, MA, 02745",41.6762181,-70.9430352,25005,"c(-70.9430352, 41.6762181)"
96 Taunton Ave,Seekonk,MA,02771,Dollar General,3,"96 Taunton Ave, Seekonk, MA, 02771",41.8246998,-71.3433694,,"c(-71.3433694, 41.8246998)"
985 County Street,Somerset,MA,02726,Dollar Tree,2,"985 County Street, Somerset, MA, 02726",41.7468798,-71.1455118,25005,"c(-71.1455118, 41.7468798)"
995 Blue Hill Ave,Dorchester,MA,02124,Family Dollar,2,"995 Blue Hill Ave, Dorchester, MA, 02124",42.2903623,-71.0898171,25025,"c(-71.0898171, 42.2903623)"
999 N. Montello St,Brockton,MA,02301,Dollar Tree,6,"999 N. Montello St, Brockton, MA, 02301",42.1110069,-71.0256796,25023,"c(-71.0256796, 42.1110069)"
Plaza One Fourteen,Lawrence,MA,01843,Family Dollar,3,"Plaza One Fourteen, Lawrence, MA, 01843",42.6906131,-71.1519628,25009,"c(-71.1519628, 42.6906131)"
